ONEWEB-0156             
1 48052U 21025L   23245.16677539  .00000116  00000+0  28328-3 0  9992
2 48052  87.9015 162.9633 0001983  76.5454 283.5896 13.13469832119803
ONEWEB-0161             
1 48053U 21025M   23244.52984453  .00000300  00000+0  78772-3 0  9991
2 48053  87.9082 163.0622 0002083  71.1235 289.0120 13.13471382119655
ONEWEB-0158             
1 48054U 21025N   23245.17948232 -.00000156  00000+0 -46255-3 0  9991
2 48054  87.9034 162.9684 0001852  84.2759 275.8581 13.13467133119864
ONEWEB-0157             
1 48055U 21025P   23245.20274226 -.00000009  00000+0 -58358-4 0  9996
2 48055  87.9093 162.9323 0001986  69.4569 290.6773 13.13471771119807
ONEWEB-0162             
1 48056U 21025Q   23245.46936505  .00000122  00000+0  30035-3 0  9995
2 48056  87.9102 162.8784 0001900  76.2560 283.8781 13.13467058119796
ONEWEB-0155             
1 48057U 21025R   23245.18582055 -.00000243  00000+0 -69947-3 0  9992
2 48057  87.9092 162.9403 0002062  76.7136 283.4223 13.13468383119911
ONEWEB-0149             
1 48058U 21025S   23245.20698722  .00000035  00000+0  61180-4 0  9994
2 48058  87.9088 162.9345 0001616  69.2355 290.8947 13.13471959119723
ONEWEB-0148             
1 48059U 21025T   23245.17101075  .00000020  00000+0  19392-4 0  9993
2 48059  87.9068 162.9505 0001643  51.3952 308.7324 13.13468508119842
